APRIZESAT 2             
1 28366U 04025A   26161.25713082  .00000140  00000+0  57050-4 0  9995
2 28366  98.1008 327.6301 0104262 271.0183  87.9061 14.38033174150643
SAUDICOMSAT 1           
1 28369U 04025D   26161.27911325  .00000343  00000+0  89720-4 0  9994
2 28369  98.5772 171.2241 0033043  46.3248 314.0679 14.55468160163129
SAUDICOMSAT 2           
1 28370U 04025E   26161.50048551  .00000233  00000+0  71984-4 0  9995
2 28370  98.6642 173.5573 0054139 280.1952  79.3138 14.49977411159134
APRIZESAT 1             
1 28372U 04025G   26161.26469773  .00000176  00000+0  55257-4 0  9994
2 28372  98.6304 171.8018 0044670 174.6933 185.4744 14.51773475160907
NANOSAT-1               
1 28493U 04049B   26161.34135670  .00000889  00000+0  12449-3 0  9995
2 28493  98.2267 297.8353 0003175 331.6325  28.4713 14.80146049154437
SAUDICOMSAT 7           
1 31119U 07012C   26160.87840313  .00000430  00000+0  86238-4 0  9991
2 31119  98.3774 134.8606 0054824 218.3588 141.3711 14.66103377 21369
SAUDICOMSAT 6           
1 31121U 07012E   26161.18052265  .00000575  00000+0  11943-3 0  9990
2 31121  98.4096 128.5668 0071570 349.7182  10.2551 14.62549610 19165
SAUDICOMSAT 5           
1 31124U 07012H   26161.20280535  .00000498  00000+0  94234-4 0  9998
2 31124  98.3486 135.9404 0048095 146.2479 214.1804 14.68147951 22578
SAUDICOMSAT 3           
1 31125U 07012J   26161.17550719  .00000759  00000+0  13177-3 0  9995
2 31125  98.3140 136.4615 0040469  74.7018 285.8655 14.70693972 23793
SAUDICOMSAT 4           
1 31127U 07012L   26161.18572832  .00000459  00000+0  94174-4 0  9992
2 31127  98.3979 133.6134 0062071 280.5757  78.8457 14.64505245 20267
APRIZESAT 4             
1 35684U 09041D   26161.44643907  .00000584  00000+0  76372-4 0  9998
2 35684  98.1412 236.6325 0042866 345.2668  14.7293 14.83870372910368
APRIZESAT 3             
1 35686U 09041F   26161.34454705  .00001165  00000+0  10508-3 0  9999
2 35686  98.2053 314.2413 0062771  89.7329 271.1083 14.96220597915356
S-NET D                 
1 43186U 18014G   26161.46833201  .00004592  00000+0  23824-3 0  9990
2 43186  97.5371  66.3009 0009549  50.7592 309.4487 15.16609598457747
S-NET B                 
1 43187U 18014H   26161.28171503  .00005113  00000+0  26504-3 0  9999
2 43187  97.5375  66.1017 0010042  46.5219 313.6847 15.16577938457714
S-NET A                 
1 43188U 18014J   26161.46724519  .00004567  00000+0  23685-3 0  9990
2 43188  97.5386  66.4936 0009969  46.8834 313.3231 15.16617465457749
S-NET C                 
1 43189U 18014K   26161.48349659  .00004857  00000+0  25196-3 0  9992
2 43189  97.5403  66.5833 0011129  39.1939 321.0098 15.16570695456298
SALSAT                  
1 46495U 20068K   26161.27729316  .00007605  00000+0  26695-3 0  9995
2 46495  97.8853 163.9217 0008649 336.5873  23.4971 15.29700288314300
OOV-CUBE (TUBSAT-30)    
1 60240U 24128F   26161.33497640  .00002002  00000+0  16160-3 0  9991
2 60240  61.9950 249.4658 0045478 132.2343 228.2621 15.02745355105082
LPNTSAT-001 (IOD-1)     
1 68408U 26065A   26161.48722098  .00002693  00000+0  13336-3 0  9999
2 68408  97.4032  42.1385 0017398  33.4976 326.7354 15.18502400 11240
